OBJECT_NAME,OBJECT_ID,EPOCH,MEAN_MOTION,ECCENTRICITY,INCLINATION,RA_OF_ASC_NODE,ARG_OF_PERICENTER,MEAN_ANOMALY,EPHEMERIS_TYPE,CLASSIFICATION_TYPE,NORAD_CAT_ID,ELEMENT_SET_NO,REV_AT_EPOCH,BSTAR,MEAN_MOTION_DOT,MEAN_MOTION_DDOT
IRIDIUM 33 DEB,1997-051AAJ,2024-10-04T06:21:23.352768,14.4263974,0.0074571,85.971,24.0364,197.3991,162.4653,0,U,39777,999,56599,0.009791,0.00033796,0
IRIDIUM 33 DEB,1997-051AAK,2024-10-05T14:38:58.347456,14.485246,0.0011333,86.3813,230.3447,50.5552,309.6653,0,U,39778,999,54408,0.0065182,0.00024572,0
IRIDIUM 33 DEB,1997-051AAN,2024-09-28T06:03:51.159744,14.05658456,0.0221327,86.3787,77.8944,222.2617,315.9964,0,U,39781,999,1875,0.014089,0.00028715,0
IRIDIUM 33 DEB,1997-051AAQ,2024-09-26T08:13:06.334752,14.63264196,0.0041259,86.1558,111.4907,290.6399,245.8984,0,U,39783,999,65697,0.0070815,0.00037132,0
IRIDIUM 33 DEB,1997-051AAZ,2024-09-14T09:09:08.463744,14.36534313,0.012434,86.4092,47.397,115.2985,246.1155,0,U,39792,999,52865,0.048453,0.00158795,0
IRIDIUM 33 DEB,1997-051ABJ,2024-10-05T13:12:46.884096,14.68851227,0.001522,86.3703,199.1425,108.4423,65.3328,0,U,40996,999,56069,0.0097584,0.00057541,0
IRIDIUM 33 DEB,1997-051ABL,2024-10-01T15:50:44.153664,14.4215501,0.0010774,86.3827,239.8534,83.6499,40.7976,0,U,40998,999,802,0.0022455,7.414e-05,0
IRIDIUM 33 DEB,1997-051ABN,2024-09-24T14:01:58.779840,14.1070309,0.0251725,86.2834,22.3363,257.5428,113.0867,0,U,46435,999,64561,0.017403,0.0004203,0
IRIDIUM 33 DEB,1997-051ABR,2024-09-17T03:06:58.254624,14.37069134,0.0046435,86.2705,200.3512,20.1436,40.5813,0,U,46734,999,56512,0.0034171,0.00010293,0
IRIDIUM 33 DEB,1997-051ABX,2024-10-03T23:51:18.590688,14.55067522,0.0022447,86.343,172.7181,4.8718,6.5981,0,U,46965,999,55932,0.0041184,0.00017866,0
IRIDIUM 33 DEB,1997-051ACD,2024-10-03T11:09:12.342816,14.71725703,0.001582,86.3486,173.3132,24.6551,152.2788,0,U,46971,999,66579,0.0080222,0.0005046,0
IRIDIUM 33 DEB,1997-051ACE,2024-10-05T14:36:19.177920,14.47269096,0.00127,86.3898,225.2949,105.0041,20.0959,0,U,46972,999,71385,0.0036313,0.00013324,0
IRIDIUM 33 DEB,1997-051ACG,2024-10-03T18:27:40.666752,14.30508408,0.0114996,86.3014,293.0599,171.0676,189.2602,0,U,46974,999,51255,0.0085697,0.00024073,0
IRIDIUM 33 DEB,1997-051ACM,2024-10-04T03:59:23.426304,14.57164317,0.0043238,86.3519,244.8591,308.8879,50.8475,0,U,46979,999,29030,0.015593,0.00071935,0
